NORAD_CAT_ID,OBJECT_NAME,OBJECT_TYPE,EPOCH,MEAN_MOTION,ECCENTRICITY,INCLINATION,RA_OF_ASC_NODE,ARG_OF_PERICENTER,MEAN_ANOMALY,BSTAR,MEAN_MOTION_DOT,MEAN_MOTION_DDOT,TLE_LINE0,TLE_LINE1,TLE_LINE2,SEMIMAJOR_AXIS,PERIOD,APOGEE,PERIGEE,DECAYED
51887.0,STARLINK-3551,PAYLOAD,2023-11-29 13:52:56,15.08837874,0.0001394,53.2162,130.1235,86.3707,273.7445,0.00011013,1.465e-05,0.0,0 STARLINK-3551,1 51887U 22022AM  23333.57842724  .00001465  00000-0  11013-3 0  9995,2 51887  53.2162 130.1235 0001394  86.3707 273.7445 15.08837874 97776,6917.887,95.438,540.716,538.788,0.0
51887.0,STARLINK-3551,PAYLOAD,2023-11-29 17:03:42,15.0884137,0.000141,53.2161,129.5287,81.5548,278.5604,0.00013747,1.901e-05,0.0,0 STARLINK-3551,1 51887U 22022AM  23333.71090484  .00001901  00000-0  13747-3 0  9990,2 51887  53.2161 129.5287 0001410  81.5548 278.5604 15.08841370 97791,6917.876,95.437,540.717,538.766,0.0
51887.0,STARLINK-3551,PAYLOAD,2023-12-01 10:23:44,15.08833863,0.0001359,53.2161,121.7974,79.2548,280.8597,2.8628e-05,1.68e-06,0.0,0 STARLINK-3551,1 51887U 22022AM  23335.43315204  .00000168  00000-0  28628-4 0  9990,2 51887  53.2161 121.7974 0001359  79.2548 280.8597 15.08833863 98059,6917.899,95.438,540.704,538.824,0.0
51887.0,STARLINK-3551,PAYLOAD,2023-12-01 16:45:16,15.08840828,0.0001278,53.216,120.6059,94.0087,266.1051,9.4913e-05,1.223e-05,0.0,0 STARLINK-3551,1 51887U 22022AM  23335.69810551  .00001223  00000-0  94913-4 0  9996,2 51887  53.2160 120.6059 0001278  94.0087 266.1051 15.08840828 98098,6917.878,95.438,540.627,538.859,0.0
51887.0,STARLINK-3551,PAYLOAD,2023-12-02 13:25:16,15.08847058,0.0001195,53.2162,116.7412,89.3108,270.8021,0.00014185,1.971e-05,0.0,0 STARLINK-3551,1 51887U 22022AM  23336.55921845  .00001971  00000-0  14185-3 0  9993,2 51887  53.2162 116.7412 0001195  89.3108 270.8021 15.08847058 98224,6917.859,95.437,540.55,538.897,0.0
51887.0,STARLINK-3551,PAYLOAD,2023-12-02 15:00:39,15.08848271,0.0001177,53.2162,116.4435,86.5063,273.6064,0.00016489,2.338e-05,0.0,0 STARLINK-3551,1 51887U 22022AM  23336.62545745  .00002338  00000-0  16489-3 0  9999,2 51887  53.2162 116.4435 0001177  86.5063 273.6064 15.08848271 98232,6917.855,95.437,540.534,538.906,0.0
51887.0,STARLINK-3551,PAYLOAD,2023-12-03 05:19:09,15.08826086,0.0001254,53.2156,113.7671,89.7829,270.3306,-7.2899e-05,-1.447e-05,0.0,0 STARLINK-3551,1 51887U 22022AM  23337.22163310 -.00001447  00000-0 -72899-4 0  9990,2 51887  53.2156 113.7671 0001254  89.7829 270.3306 15.08826086 98321,6917.923,95.438,540.655,538.92,0.0
51887.0,STARLINK-3551,PAYLOAD,2023-12-03 13:16:05,15.08812902,0.0002701,53.2138,112.2759,148.1175,211.9981,-0.00026773,-4.544e-05,0.0,0 STARLINK-3551,1 51887U 22022AM  23337.55283977 -.00004544  00000-0 -26773-3 0  9998,2 51887  53.2138 112.2759 0002701 148.1175 211.9981 15.08812902 98371,6917.963,95.439,541.697,537.96,0.0
51887.0,STARLINK-3551,PAYLOAD,2023-12-03 16:26:52,15.08807197,0.0001487,53.2164,111.6898,62.8397,297.2746,-0.00032517,-5.455e-05,0.0,0 STARLINK-3551,1 51887U 22022AM  23337.68533054 -.00005455  00000-0 -32517-3 0  9991,2 51887  53.2164 111.6898 0001487  62.8397 297.2746 15.08807197 98393,6917.981,95.44,540.874,538.817,0.0
51887.0,STARLINK-3551,PAYLOAD,2023-12-04 08:20:43,15.08820917,0.00011,53.2161,108.7105,92.4116,267.7002,-9.7678e-05,-1.841e-05,0.0,0 STARLINK-3551,1 51887U 22022AM  23338.34773106 -.00001841  00000-0 -97678-4 0  9994,2 51887  53.2161 108.7105 0001100  92.4116 267.7002 15.08820917 98491,6917.939,95.439,540.565,539.043,0.0
51887.0,STARLINK-3551,PAYLOAD,2023-12-04 13:06:52,15.0883236,0.0002026,53.2162,107.8216,106.2125,253.909,5.62e-05,6.06e-06,0.0,0 STARLINK-3551,1 51887U 22022AM  23338.54644659  .00000606  00000-0  56200-4 0  9998,2 51887  53.2162 107.8216 0002026 106.2125 253.9090 15.08832360 98520,6917.904,95.438,541.17,538.367,0.0
51887.0,STARLINK-3551,PAYLOAD,2023-12-05 03:25:21,15.08837232,0.000221,53.2165,105.1434,127.3741,232.7453,0.00057986,8.952e-05,0.0,0 STARLINK-3551,1 51887U 22022AM  23339.14260676  .00008952  00000-0  57986-3 0  9991,2 51887  53.2165 105.1434 0002210 127.3741 232.7453 15.08837232 98610,6917.889,95.438,541.283,538.225,0.0
51887.0,STARLINK-3551,PAYLOAD,2023-12-05 12:57:42,15.08792115,0.0001851,53.2163,103.3639,59.2259,300.8916,-0.00017388,-3.051e-05,0.0,0 STARLINK-3551,1 51887U 22022AM  23339.54007884 -.00003051  00000-0 -17388-3 0  9994,2 51887  53.2163 103.3639 0001851  59.2259 300.8916 15.08792115 98679,6918.027,95.441,541.172,538.611,0.0
51887.0,STARLINK-3551,PAYLOAD,2023-12-05 17:43:53,15.08781942,0.0001496,53.2164,102.4719,65.6658,294.4491,-0.00034983,-5.842e-05,0.0,0 STARLINK-3551,1 51887U 22022AM  23339.73880884 -.00005842  00000-0 -34983-3 0  9994,2 51887  53.2164 102.4719 0001496  65.6658 294.4491 15.08781942 98704,6918.058,95.441,540.958,538.888,0.0
51887.0,STARLINK-3551,PAYLOAD,2023-12-06 03:16:10,15.08814078,7.17e-05,53.2171,100.6787,144.0667,216.0373,1.9124e-05,1.7e-07,0.0,0 STARLINK-3551,1 51887U 22022AM  23340.13623372  .00000017  00000-0  19124-4 0  9995,2 51887  53.2171 100.6787 0000717 144.0667 216.0373 15.08814078 98766,6917.96,95.439,540.321,539.329,0.0
51887.0,STARLINK-3551,PAYLOAD,2023-12-06 09:37:42,15.088444,0.0001482,53.2151,99.4945,83.9954,276.1207,0.00027351,4.068e-05,0.0,0 STARLINK-3551,1 51887U 22022AM  23340.40118416  .00004068  00000-0  27351-3 0  9993,2 51887  53.2151  99.4945 0001482  83.9954 276.1207 15.08844400 98805,6917.867,95.437,540.757,538.707,0.0
51887.0,STARLINK-3551,PAYLOAD,2023-12-06 12:48:28,15.08847998,0.0001402,53.2159,98.9006,93.8324,266.2828,0.00032832,4.942e-05,0.0,0 STARLINK-3551,1 51887U 22022AM  23340.53366233  .00004942  00000-0  32832-3 0  9990,2 51887  53.2159  98.9006 0001402  93.8324 266.2828 15.08847998 98824,6917.856,95.437,540.691,538.751,0.0
51887.0,STARLINK-3551,PAYLOAD,2023-12-07 03:06:55,15.08866869,0.0001456,53.2157,96.2223,102.9902,257.1253,0.0006509,0.00010094,0.0,0 STARLINK-3551,1 51887U 22022AM  23341.12980800  .00010094  00000-0  65090-3 0  9995,2 51887  53.2157  96.2223 0001456 102.9902 257.1253 15.08866869 98916,6917.798,95.436,540.67,538.656,0.0
51887.0,STARLINK-3551,PAYLOAD,2023-12-07 12:39:13,15.08900407,0.0001437,53.2155,94.4394,84.6449,275.4707,0.0011531,0.00018142,0.0,0 STARLINK-3551,1 51887U 22022AM  23341.52723795  .00018142  00000-0  11531-2 0  9999,2 51887  53.2155  94.4394 0001437  84.6449 275.4707 15.08900407 98974,6917.696,95.434,540.555,538.567,0.0
51887.0,STARLINK-3551,PAYLOAD,2023-12-08 02:57:40,15.08889601,0.0001221,53.2157,91.7633,93.1665,266.9467,0.00035064,5.304e-05,0.0,0 STARLINK-3551,1 51887U 22022AM  23342.12338312  .00005304  00000-0  35064-3 0  9997,2 51887  53.2157  91.7633 0001221  93.1665 266.9467 15.08889601 99069,6917.729,95.434,540.438,538.749,0.0
51887.0,STARLINK-3551,PAYLOAD,2023-12-08 10:54:36,15.08840329,0.0001229,53.2159,90.2766,79.3252,280.7879,-0.00090819,-0.00014713,0.0,0 STARLINK-3551,1 51887U 22022AM  23342.45458652 -.00014713  00000-0 -90819-3 0  9998,2 51887  53.2159  90.2766 0001229  79.3252 280.7879 15.08840329 99119,6917.879,95.438,540.595,538.894,0.0
51887.0,STARLINK-3551,PAYLOAD,2023-12-08 12:29:59,15.0884301,0.0001358,53.2161,89.9793,91.7133,268.4015,-0.00058766,-9.629e-05,0.0,0 STARLINK-3551,1 51887U 22022AM  23342.52082601 -.00009629  00000-0 -58766-3 0  9998,2 51887  53.2161  89.9793 0001358  91.7133 268.4015 15.08843010 99122,6917.871,95.437,540.676,538.797,0.0
51887.0,STARLINK-3551,PAYLOAD,2023-12-09 10:45:24,15.08836017,0.000139,53.2164,85.816,102.2864,257.8284,0.0006178,9.557e-05,0.0,0 STARLINK-3551,1 51887U 22022AM  23343.44819714  .00009557  00000-0  61780-3 0  9991,2 51887  53.2164  85.8160 0001390 102.2864 257.8284 15.08836017 99267,6917.893,95.438,540.719,538.796,0.0
51887.0,STARLINK-3551,PAYLOAD,2023-12-09 12:20:47,15.08838347,0.000134,53.2167,85.5197,88.0074,272.1072,0.00064274,9.956e-05,0.0,0 STARLINK-3551,1 51887U 22022AM  23343.51443758  .00009956  00000-0  64274-3 0  9994,2 51887  53.2167  85.5197 0001340  88.0074 272.1072 15.08838347 99270,6917.885,95.438,540.677,538.823,0.0
51887.0,STARLINK-3551,PAYLOAD,2023-12-09 17:06:56,15.08843863,0.0001416,53.2165,84.6263,103.418,256.697,0.00068146,0.00010575,0.0,0 STARLINK-3551,1 51887U 22022AM  23343.71315614  .00010575  00000-0  68146-3 0  9996,2 51887  53.2165  84.6263 0001416 103.4180 256.6970 15.08843863 99303,6917.869,95.437,540.713,538.754,0.0
51887.0,STARLINK-3551,PAYLOAD,2023-12-10 12:11:34,15.08836324,0.0001419,53.2166,81.0571,106.0118,254.1031,0.00019584,2.83e-05,0.0,0 STARLINK-3551,1 51887U 22022AM  23344.50804005  .00002830  00000-0  19584-3 0  9998,2 51887  53.2166  81.0571 0001419 106.0118 254.1031 15.08836324 99428,6917.892,95.438,540.738,538.775,0.0
51887.0,STARLINK-3551,PAYLOAD,2023-12-11 13:37:44,15.08839923,0.0001265,53.2169,76.3,92.1227,267.991,0.00024919,3.68e-05,0.0,0 STARLINK-3551,1 51887U 22022AM  23345.56788189  .00003680  00000-0  24919-3 0  9991,2 51887  53.2169  76.3000 0001265  92.1227 267.9910 15.08839923 99583,6917.881,95.438,540.621,538.871,0.0
51887.0,STARLINK-3551,PAYLOAD,2023-12-12 11:53:09,15.08839788,0.0001386,53.217,72.1403,69.3517,290.7623,0.00013566,1.872e-05,0.0,0 STARLINK-3551,1 51887U 22022AM  23346.49524482  .00001872  00000-0  13566-3 0  9995,2 51887  53.2170  72.1403 0001386  69.3517 290.7623 15.08839788 99728,6917.881,95.438,540.705,538.787,0.0
51887.0,STARLINK-3551,PAYLOAD,2023-12-12 13:28:32,15.08841763,0.0001355,53.217,71.8424,75.3567,284.7575,0.00016352,2.316e-05,0.0,0 STARLINK-3551,1 51887U 22022AM  23346.56148365  .00002316  00000-0  16352-3 0  9995,2 51887  53.2170  71.8424 0001355  75.3567 284.7575 15.08841763 99731,6917.875,95.437,540.677,538.803,0.0
51887.0,STARLINK-3551,PAYLOAD,2023-12-13 13:19:19,15.08847335,0.0001473,53.217,67.3824,70.2131,289.902,0.00019212,2.772e-05,0.0,0 STARLINK-3551,1 51887U 22022AM  23347.55508183  .00002772  00000-0  19212-3 0  9997,2 51887  53.2170  67.3824 0001473  70.2131 289.9020 15.08847335 99886,6917.858,95.437,540.742,538.704,0.0
